NORAD_CAT_ID,OBJECT_NAME,OBJECT_TYPE,EPOCH,MEAN_MOTION,ECCENTRICITY,INCLINATION,RA_OF_ASC_NODE,ARG_OF_PERICENTER,MEAN_ANOMALY,BSTAR,MEAN_MOTION_DOT,MEAN_MOTION_DDOT,TLE_LINE0,TLE_LINE1,TLE_LINE2,SEMIMAJOR_AXIS,PERIOD,APOGEE,PERIGEE,DECAYED
55275.0,STARLINK-5260,PAYLOAD,2024-07-15 03:54:11,14.98334976,0.0003006,70.0003,103.7576,267.6921,92.3894,6.5707e-05,6.91e-06,0.0,0 STARLINK-5260,1 55275U 23010G   24197.16262792  .00000691  00000-0  65707-4 0  9993,2 55275  70.0003 103.7576 0003006 267.6921  92.3894 14.98334976 83029,6950.178,96.107,574.132,569.953,0.0
55275.0,STARLINK-5260,PAYLOAD,2024-07-15 21:31:40,14.98324844,0.0003046,70.0003,101.9064,267.1698,92.9112,6.0383e-06,-2.1e-07,0.0,0 STARLINK-5260,1 55275U 23010G   24197.89699554 -.00000021  00000-0  60383-5 0  9997,2 55275  70.0003 101.9064 0003046 267.1698  92.9112 14.98324844 82819,6950.209,96.107,574.191,569.957,0.0
55275.0,STARLINK-5260,PAYLOAD,2024-07-16 03:56:12,14.98330482,0.0002882,70.0004,101.2331,265.3664,94.7166,5.2967e-05,5.39e-06,0.0,0 STARLINK-5260,1 55275U 23010G   24198.16403110  .00000539  00000-0  52967-4 0  9990,2 55275  70.0004 101.2331 0002882 265.3664  94.7166 14.98330482 82858,6950.191,96.107,574.059,570.053,0.0
55275.0,STARLINK-5260,PAYLOAD,2024-07-16 21:33:40,14.98334656,0.0002801,70.0005,99.3813,269.1951,90.8887,4.6817e-05,4.66e-06,0.0,0 STARLINK-5260,1 55275U 23010G   24198.89838719  .00000466  00000-0  46817-4 0  9993,2 55275  70.0005  99.3813 0002801 269.1951  90.8887 14.98334656 83285,6950.178,96.107,573.99,570.097,0.0
55275.0,STARLINK-5260,PAYLOAD,2024-07-17 02:22:04,14.98339936,0.000268,70.0007,98.8783,262.7123,97.3732,9.7348e-05,1.069e-05,0.0,0 STARLINK-5260,1 55275U 23010G   24199.09866134  .00001069  00000-0  97348-4 0  9993,2 55275  70.0007  98.8783 0002680 262.7123  97.3732 14.98339936 82996,6950.162,96.106,573.89,570.165,0.0
55275.0,STARLINK-5260,PAYLOAD,2024-07-17 10:22:45,14.98335696,0.0002801,70.0002,98.0337,274.5188,85.5651,-3.1615e-05,-4.7e-06,0.0,0 STARLINK-5260,1 55275U 23010G   24199.43246631 -.00000470  00000-0 -31615-4 0  9997,2 55275  70.0002  98.0337 0002801 274.5188  85.5651 14.98335696 83040,6950.175,96.107,573.987,570.094,0.0
55275.0,STARLINK-5260,PAYLOAD,2024-07-17 21:35:42,14.98322778,0.0002404,70.0018,96.8606,253.0031,107.0864,-1.6023e-05,-2.84e-06,0.0,0 STARLINK-5260,1 55275U 23010G   24199.89979552 -.00000284  00000-0 -16023-4 0  9991,2 55275  70.0018  96.8606 0002404 253.0031 107.0864 14.98322778 83111,6950.215,96.107,573.751,570.409,0.0
55275.0,STARLINK-5260,PAYLOAD,2024-07-17 23:11:50,14.98320567,0.0002438,70.0017,96.6903,265.1989,94.8891,-5.1808e-07,-9.9e-07,0.0,0 STARLINK-5260,1 55275U 23010G   24199.96655681 -.00000099  00000-0 -51808-6 0  9999,2 55275  70.0017  96.6903 0002438 265.1989  94.8891 14.98320567 83444,6950.222,96.108,573.782,570.393,0.0
55275.0,STARLINK-5260,PAYLOAD,2024-07-18 02:24:06,14.983216,0.0002432,70.0013,96.3535,263.047,97.0412,-2.4032e-05,-3.8e-06,0.0,0 STARLINK-5260,1 55275U 23010G   24200.10007731 -.00000380  00000-0 -24032-4 0  9995,2 55275  70.0013  96.3535 0002432 263.0470  97.0412 14.98321600 83469,6950.219,96.108,573.774,570.394,0.0
55275.0,STARLINK-5260,PAYLOAD,2024-07-18 21:37:43,14.98327916,0.0002707,70.0004,94.3323,267.6815,92.4034,-8.4084e-05,-1.096e-05,0.0,0 STARLINK-5260,1 55275U 23010G   24200.90119557 -.00001096  00000-0 -84084-4 0  9991,2 55275  70.0004  94.3323 0002707 267.6815  92.4034 14.98327916 83588,6950.199,96.107,573.946,570.183,0.0
55275.0,STARLINK-5260,PAYLOAD,2024-07-19 02:26:07,14.98331582,0.0002686,70.0004,93.8264,263.8638,96.2215,-3.8548e-05,-5.53e-06,0.0,0 STARLINK-5260,1 55275U 23010G   24201.10147191 -.00000553  00000-0 -38548-4 0  9990,2 55275  70.0004  93.8264 0002686 263.8638  96.2215 14.98331582 83298,6950.188,96.107,573.92,570.186,0.0
55275.0,STARLINK-5260,PAYLOAD,2024-07-19 10:26:47,14.98335452,0.0002922,70.0,92.9839,270.3084,89.7741,-9.1829e-05,-1.189e-05,0.0,0 STARLINK-5260,1 55275U 23010G   24201.43527026 -.00001189  00000-0 -91829-4 0  9992,2 55275  70.0000  92.9839 0002922 270.3084  89.7741 14.98335452 83665,6950.176,96.107,574.072,570.01,0.0
55275.0,STARLINK-5260,PAYLOAD,2024-07-19 23:15:52,14.98325172,0.0002648,69.9999,91.6367,261.3258,98.7602,0.00014103,1.59e-05,0.0,0 STARLINK-5260,1 55275U 23010G   24201.96935195  .00001590  00000-0  14103-3 0  9993,2 55275  69.9999  91.6367 0002648 261.3258  98.7602 14.98325172 83742,6950.208,96.107,573.913,570.232,0.0
55275.0,STARLINK-5260,PAYLOAD,2024-07-20 02:28:08,14.98323393,0.0002768,70.0,91.3003,265.6602,94.4241,0.00024199,2.795e-05,0.0,0 STARLINK-5260,1 55275U 23010G   24202.10287103  .00002795  00000-0  24199-3 0  9993,2 55275  70.0000  91.3003 0002768 265.6602  94.4241 14.98323393 83447,6950.213,96.107,574.002,570.155,0.0
55275.0,STARLINK-5260,PAYLOAD,2024-07-20 10:28:48,14.98332131,0.0002849,70.0003,90.4583,270.3856,89.6976,5.47e-05,5.6e-06,0.0,0 STARLINK-5260,1 55275U 23010G   24202.43666986  .00000560  00000-0  54700-4 0  9999,2 55275  70.0003  90.4583 0002849 270.3856  89.6976 14.98332131 83819,6950.186,96.107,574.031,570.071,0.0
55275.0,STARLINK-5260,PAYLOAD,2024-07-20 23:17:52,14.98328431,0.0002982,70.0,89.1137,268.0558,92.0259,9.0135e-05,9.83e-06,0.0,0 STARLINK-5260,1 55275U 23010G   24202.97075188  .00000983  00000-0  90135-4 0  9997,2 55275  70.0000  89.1137 0002982 268.0558  92.0259 14.98328431 83895,6950.198,96.107,574.135,569.99,0.0
55275.0,STARLINK-5260,PAYLOAD,2024-07-21 02:30:08,14.98331635,0.0002927,70.0,88.7767,268.4112,91.6712,0.00013332,1.498e-05,0.0,0 STARLINK-5260,1 55275U 23010G   24203.10426868  .00001498  00000-0  13332-3 0  9993,2 55275  70.0000  88.7767 0002927 268.4112  91.6712 14.98331635 83594,6950.188,96.107,574.087,570.019,0.0
55275.0,STARLINK-5260,PAYLOAD,2024-07-21 20:07:38,14.9832639,0.0002807,70.0001,86.9248,271.4028,88.681,1.1784e-05,4.8e-07,0.0,0 STARLINK-5260,1 55275U 23010G   24203.83863492  .00000048  00000-0  11784-4 0  9991,2 55275  70.0001  86.9248 0002807 271.4028  88.6810 14.98326390 83706,6950.204,96.107,574.02,570.118,0.0
55275.0,STARLINK-5260,PAYLOAD,2024-07-21 21:43:46,14.98327255,0.0002779,70.0,86.7565,271.499,88.585,6.8215e-06,-1.2e-07,0.0,0 STARLINK-5260,1 55275U 23010G   24203.90539468 -.00000012  00000-0  68215-5 0  9996,2 55275  70.0000  86.7565 0002779 271.4990  88.5850 14.98327255 84032,6950.201,96.107,573.998,570.135,0.0
55275.0,STARLINK-5260,PAYLOAD,2024-07-22 15:21:14,14.98325535,0.0003116,70.0001,84.9049,270.4108,89.6694,0.0001395,1.572e-05,0.0,0 STARLINK-5260,1 55275U 23010G   24204.63974967  .00001572  00000-0  13950-3 0  9999,2 55275  70.0001  84.9049 0003116 270.4108  89.6694 14.98325535 84145,6950.207,96.107,574.237,569.906,0.0
55275.0,STARLINK-5260,PAYLOAD,2024-07-23 02:34:10,14.98309962,0.000288,70.0002,83.7269,268.6019,91.481,0.00061338,7.229e-05,0.0,0 STARLINK-5260,1 55275U 23010G   24205.10706880  .00007229  00000-0  61338-3 0  9997,2 55275  70.0002  83.7269 0002880 268.6019  91.4810 14.98309962 83892,6950.255,96.108,574.122,570.118,0.0
55275.0,STARLINK-5260,PAYLOAD,2024-07-23 08:58:43,14.98325579,0.000274,70.0003,83.0536,271.4906,88.5939,-9.0324e-05,-1.17e-05,0.0,0 STARLINK-5260,1 55275U 23010G   24205.37411503 -.00001170  00000-0 -90324-4 0  9990,2 55275  70.0003  83.0536 0002740 271.4906  88.5939 14.98325579 84257,6950.207,96.107,573.976,570.167,0.0
55275.0,STARLINK-5260,PAYLOAD,2024-07-23 20:11:40,14.98319081,0.000344,69.9995,81.8774,265.8713,94.2053,-0.00010459,-1.34e-05,0.0,0 STARLINK-5260,1 55275U 23010G   24205.84143884 -.00001340  00000-0 -10459-3 0  9995,2 55275  69.9995  81.8774 0003440 265.8713  94.2053 14.98319081 84325,6950.227,96.108,574.483,569.701,0.0
55275.0,STARLINK-5260,PAYLOAD,2024-07-24 01:00:04,14.98324955,0.0003348,69.9992,81.3723,267.6664,92.4111,-4.2644e-05,-6.02e-06,0.0,0 STARLINK-5260,1 55275U 23010G   24206.04171498 -.00000602  00000-0 -42644-4 0  9992,2 55275  69.9992  81.3723 0003348 267.6664  92.4111 14.98324955 84357,6950.208,96.107,574.4,569.747,0.0
55275.0,STARLINK-5260,PAYLOAD,2024-07-25 01:02:04,14.98340488,0.0003577,69.9988,78.8474,269.0969,90.978,4.6737e-06,-3.7e-07,0.0,0 STARLINK-5260,1 55275U 23010G   24207.04310298 -.00000037  00000-0  46737-5 0  9995,2 55275  69.9988  78.8474 0003577 269.0969  90.9780 14.98340488 84189,6950.16,96.106,574.512,569.539,0.0
55275.0,STARLINK-5260,PAYLOAD,2024-07-25 15:27:17,14.98323212,0.0003179,70.0029,77.3264,277.7118,82.368,0.00012431,1.39e-05,0.0,0 STARLINK-5260,1 55275U 23010G   24207.64395143  .00001390  00000-0  12431-3 0  9997,2 55275  70.0029  77.3264 0003179 277.7118  82.3680 14.98323212 84279,6950.214,96.107,574.288,569.869,0.0
55275.0,STARLINK-5260,PAYLOAD,2024-07-25 21:51:49,14.9832478,0.0003686,69.9998,76.6529,258.4688,101.6058,4.303e-05,4.2e-06,0.0,0 STARLINK-5260,1 55275U 23010G   24207.91099126  .00000420  00000-0  43030-4 0  9992,2 55275  69.9998  76.6529 0003686 258.4688 101.6058 14.98324780 84633,6950.209,96.107,574.636,569.512,0.0
55275.0,STARLINK-5260,PAYLOAD,2024-07-26 15:29:17,14.98329163,0.0003313,69.9996,74.8046,265.3475,94.7306,0.00012482,1.397e-05,0.0,0 STARLINK-5260,1 55275U 23010G   24208.64534489  .00001397  00000-0  12482-3 0  9999,2 55275  69.9996  74.8046 0003313 265.3475  94.7306 14.98329163 84743,6950.195,96.107,574.363,569.758,0.0
55275.0,STARLINK-5260,PAYLOAD,2024-07-26 21:53:49,14.98278032,0.000294,70.0001,74.1316,266.0502,94.0321,0.0010485,0.00012423,0.0,0 STARLINK-5260,1 55275U 23010G   24208.91238355  .00012423  00000-0  10485-2 0  9994,2 55275  70.0001  74.1316 0002940 266.0502  94.0321 14.98278032 84467,6950.354,96.11,574.262,570.175,0.0
55275.0,STARLINK-5260,PAYLOAD,2024-07-27 21:55:51,14.98327849,0.0003333,69.9995,71.6068,266.445,93.6328,-2.515e-05,-3.93e-06,0.0,0 STARLINK-5260,1 55275U 23010G   24209.91379007 -.00000393  00000-0 -25150-4 0  9997,2 55275  69.9995  71.6068 0003333 266.4450  93.6328 14.98327849 84930,6950.2,96.107,574.381,569.748,0.0
